TANSAT                  
1 41898U 16081A   26139.25767956  .00000133  00000+0  38223-4 0  9992
2 41898  98.5362 138.6614 0021512  41.3389 318.9434 14.59923481500400
JILIN-1 03              
1 41914U 17002B   26139.26307326  .00008083  00000+0  19920-3 0  9991
2 41914  97.1954 146.7719 0003583 277.6650  82.4190 15.40817800517408
CARTOSAT-2D             
1 41948U 17008A   26139.31064098  .00003684  00000+0  17797-3 0  9998
2 41948  97.4118 199.1517 0004108 356.6292   3.4914 15.19254353513195
CARTOSAT-2E             
1 42767U 17036C   26139.32810440  .00002177  00000+0  10658-3 0  9995
2 42767  97.4286 199.6023 0004196  59.8195 300.3455 15.19229736493765
IRIDIUM 113             
1 42803U 17039A   26139.07712056 -.00000002  00000+0 -76845-5 0  9994
2 42803  86.3963 334.3525 0002164  92.5474 267.5970 14.34217416467010
NORSAT 2                
1 42828U 17042D   26139.22387677  .00007250  00000+0  32676-3 0  9991
2 42828  97.4027 313.1405 0010635 147.7436 212.4453 15.21287576483335
TECHNOSAT               
1 42829U 17042E   26139.32468128  .00002754  00000+0  19890-3 0  9991
2 42829  97.4252 298.0900 0017632 188.8694 171.2224 15.04758785482369
FLYING LAPTOP           
1 42831U 17042G   26139.32072940  .00002219  00000+0  17813-3 0  9996
2 42831  97.4563 295.9905 0017909 219.1660 140.8270 15.00937552482120
WNISAT 1R               
1 42835U 17042L   26139.30624806  .00001553  00000+0  12406-3 0  9995
2 42835  97.4805 296.4678 0009723 260.6113  99.4013 15.01615717482171
LEMUR-2-GREENBERG       
1 42837U 17042N   26138.73751910  .00009880  00000+0  33874-3 0  9993
2 42837  97.3807 319.5226 0010442 109.4482 250.7888 15.30330861483886
LEMUR-2-FURIAUS         
1 42840U 17042R   26139.23336740  .00010524  00000+0  37357-3 0  9990
2 42840  97.3765 318.0373 0008282 158.5516 201.6073 15.29198222483783
CORVUS BC2              
1 42846U 17042X   26139.22937060  .00001384  00000+0  98640-4 0  9994
2 42846  97.4040 301.7147 0012416 204.1939 155.8707 15.06088658482706
CORVUS BC1              
1 42847U 17042Y   26139.29370314  .00001325  00000+0  94232-4 0  9993
2 42847  97.4070 302.5715 0011938 179.6675 180.4563 15.06259337482743
VRSS-2                  
1 42954U 17060A   26139.34076753  .00000695  00000+0  95660-4 0  9993
2 42954  97.6528 178.3644 0016672 189.0088 171.0829 14.81142260464182
MOHAMMED VI-A           
1 43005U 17070A   26139.28511502  .00000039  00000+0  12746-4 0  9997
2 43005  97.9564 212.0119 0001567 106.3515 253.7868 14.77094856459716
FENGYUN 3D              
1 43010U 17072A   26139.32310178  .00000365  00000+0  19432-3 0  9996
2 43010  99.0115 113.2272 0002401 110.5981 249.5452 14.19734121440894
NOAA 20 (JPSS-1)        
1 43013U 17073A   26139.31332113  .00000025  00000+0  32781-4 0  9998
2 43013  98.7763  79.0344 0001304  44.6445 315.4836 14.19505736440374
MAKERSAT 0              
1 43016U 17073D   26138.90850184  .00016695  00000+0  46599-3 0  9999
2 43016  97.4663  21.2218 0110587  18.3053 342.2118 15.30778554461983
RADFXSAT (FOX-1B)       
1 43017U 17073E   26139.16404155  .00006242  00000+0  27433-3 0  9995
2 43017  97.4739   6.9810 0153827  69.1195 292.6428 15.12138615461004
JILIN-1 04              
1 43022U 17074A   26139.27452105  .00008048  00000+0  19314-3 0  9997
2 43022  97.4836 248.1390 0002616 307.4450  52.6559 15.41644722469811
JILIN-1 05              
1 43023U 17074B   26139.28206988  .00005006  00000+0  15766-3 0  9993
2 43023  97.4842 245.0607 0004483 346.0818  14.0300 15.33386108469578
JILIN-1 06              
1 43024U 17074C   26139.25157759  .00003760  00000+0  11917-3 0  9991
2 43024  97.4770 242.0724 0006429 355.1061   5.0117 15.33339325469406
IRIDIUM 116             
1 43072U 17083C   26139.26105677  .00000007  00000+0 -44162-5 0  9999
2 43072  86.3957 334.1003 0001848  81.1705 278.9700 14.34218416440020
IRIDIUM 130             
1 43073U 17083D   26139.29910957  .00000042  00000+0  80020-5 0  9999
2 43073  86.3966 334.3571 0002174  81.8379 278.3063 14.34218188439974
LKW-2                   
1 43080U 17084A   26139.30988972  .00004185  00000+0  16584-3 0  9996
2 43080  97.1207 180.4610 0002166  39.5606 320.5790 15.25920290467285
SUPERVIEW-1 03          
1 43099U 18002A   26139.29234196  .00008880  00000+0  22920-3 0  9994
2 43099  97.3131 224.1965 0046202 285.0741  74.5394 15.38280955463923
CARTOSAT-2F             
1 43111U 18004A   26139.29379689  .00000904  00000+0  46151-4 0  9990
2 43111  97.4806 199.2060 0001428  46.4248 313.7104 15.19219968462941
LKW-3                   
1 43146U 18006A   26139.30452953  .00005637  00000+0  17050-3 0  9991
2 43146  97.6589 298.7686 0003979  64.3267 295.8386 15.34630050464288
