OBJECT_NAME,OBJECT_ID,EPOCH,MEAN_MOTION,ECCENTRICITY,INCLINATION,RA_OF_ASC_NODE,ARG_OF_PERICENTER,MEAN_ANOMALY,EPHEMERIS_TYPE,CLASSIFICATION_TYPE,NORAD_CAT_ID,ELEMENT_SET_NO,REV_AT_EPOCH,BSTAR,MEAN_MOTION_DOT,MEAN_MOTION_DDOT
TANSAT,2016-081A,2026-05-19T06:11:03.513984,14.59923481,.00215125,98.5362,138.6614,41.3389,318.9434,0,U,41898,999,50040,.38222571E-4,.133E-5,0
JILIN-1 03,2017-002B,2026-05-19T06:18:49.529664,15.40817800,.0003583,97.1954,146.7719,277.6650,82.4190,0,U,41914,999,51740,.19920442E-3,.8083E-4,0
CARTOSAT-2D,2017-008A,2026-05-19T07:27:19.380672,15.19254353,.00041087,97.4118,199.1517,356.6292,3.4914,0,U,41948,999,51319,.17796656E-3,.3684E-4,0
CARTOSAT-2E,2017-036C,2026-05-19T07:52:28.220160,15.19229736,.00041968,97.4286,199.6023,59.8195,300.3455,0,U,42767,999,49376,.10657914E-3,.2177E-4,0
IRIDIUM 113,2017-039A,2026-05-19T01:51:03.216384,14.34217416,.00021645,86.3963,334.3525,92.5474,267.5970,0,U,42803,999,46701,-.7684539E-5,-.2E-7,0
NORSAT 2,2017-042D,2026-05-19T05:22:22.952928,15.21287576,.00106355,97.4027,313.1405,147.7436,212.4453,0,U,42828,999,48333,.32676362E-3,.725E-4,0
TECHNOSAT,2017-042E,2026-05-19T07:47:32.462592,15.04758785,.00176325,97.4252,298.0900,188.8694,171.2224,0,U,42829,999,48236,.19889972E-3,.2754E-4,0
FLYING LAPTOP,2017-042G,2026-05-19T07:41:51.020160,15.00937552,.00179094,97.4563,295.9905,219.1660,140.8270,0,U,42831,999,48212,.17813123E-3,.2219E-4,0
WNISAT 1R,2017-042L,2026-05-19T07:20:59.832384,15.01615717,.00097234,97.4805,296.4678,260.6113,99.4013,0,U,42835,999,48217,.12406305E-3,.1553E-4,0
LEMUR-2-GREENBERG,2017-042N,2026-05-18T17:42:01.650240,15.30330861,.00104428,97.3807,319.5226,109.4482,250.7888,0,U,42837,999,48388,.33873601E-3,.988E-4,0
LEMUR-2-FURIAUS,2017-042R,2026-05-19T05:36:02.943360,15.29198222,.00082822,97.3765,318.0373,158.5516,201.6073,0,U,42840,999,48378,.37356502E-3,.10524E-3,0
CORVUS BC2,2017-042X,2026-05-19T05:30:17.619840,15.06088658,.00124164,97.4040,301.7147,204.1939,155.8707,0,U,42846,999,48270,.98639521E-4,.1384E-4,0
CORVUS BC1,2017-042Y,2026-05-19T07:02:55.951296,15.06259337,.00119382,97.4070,302.5715,179.6675,180.4563,0,U,42847,999,48274,.94232444E-4,.1325E-4,0
VRSS-2,2017-060A,2026-05-19T08:10:42.314592,14.81142260,.00166729,97.6528,178.3644,189.0088,171.0829,0,U,42954,999,46418,.95660287E-4,.695E-5,0
MOHAMMED VI-A,2017-070A,2026-05-19T06:50:33.937728,14.77094856,.00015674,97.9564,212.0119,106.3515,253.7868,0,U,43005,999,45971,.12745517E-4,.39E-6,0
FENGYUN 3D,2017-072A,2026-05-19T07:45:15.993792,14.19734121,.00024011,99.0115,113.2272,110.5981,249.5452,0,U,43010,999,44089,.19432312E-3,.365E-5,0
NOAA 20 (JPSS-1),2017-073A,2026-05-19T07:31:10.945632,14.19505736,.00013043,98.7763,79.0344,44.6445,315.4836,0,U,43013,999,44037,.32780982E-4,.25E-6,0
MAKERSAT 0,2017-073D,2026-05-18T21:48:14.558976,15.30778554,.0110587,97.4663,21.2218,18.3053,342.2118,0,U,43016,999,46198,.46599E-3,.16695E-3,0
RADFXSAT (FOX-1B),2017-073E,2026-05-19T03:56:13.189920,15.12138615,.01538271,97.4739,6.9810,69.1195,292.6428,0,U,43017,999,46100,.27433456E-3,.6242E-4,0
JILIN-1 04,2017-074A,2026-05-19T06:35:18.618720,15.41644722,.00026163,97.4836,248.1390,307.4450,52.6559,0,U,43022,999,46981,.19314309E-3,.8048E-4,0
JILIN-1 05,2017-074B,2026-05-19T06:46:10.837632,15.33386108,.00044839,97.4842,245.0607,346.0818,14.0300,0,U,43023,999,46957,.1576577E-3,.5006E-4,0
JILIN-1 06,2017-074C,2026-05-19T06:02:16.303776,15.33339325,.00064298,97.4770,242.0724,355.1061,5.0117,0,U,43024,999,46940,.11916974E-3,.376E-4,0
IRIDIUM 116,2017-083C,2026-05-19T06:15:55.304928,14.34218416,.00018486,86.3957,334.1003,81.1705,278.9700,0,U,43072,999,44002,-.4416232E-5,.7E-7,0
IRIDIUM 130,2017-083D,2026-05-19T07:10:43.066848,14.34218188,.00021746,86.3966,334.3571,81.8379,278.3063,0,U,43073,999,43997,.8001969E-5,.42E-6,0
LKW-2,2017-084A,2026-05-19T07:26:14.471808,15.25920290,.00021667,97.1207,180.4610,39.5606,320.5790,0,U,43080,999,46728,.16584025E-3,.4185E-4,0
SUPERVIEW-1 03,2018-002A,2026-05-19T07:00:58.345344,15.38280955,.00462021,97.3131,224.1965,285.0741,74.5394,0,U,43099,999,46392,.22920136E-3,.888E-4,0
CARTOSAT-2F,2018-004A,2026-05-19T07:03:04.051296,15.19219968,.00014287,97.4806,199.2060,46.4248,313.7104,0,U,43111,999,46294,.46150775E-4,.904E-5,0
LKW-3,2018-006A,2026-05-19T07:18:31.351392,15.34630050,.00039799,97.6589,298.7686,64.3267,295.8386,0,U,43146,999,46428,.17050384E-3,.5637E-4,0
